BEIDOU-2 G7 (C03)       
1 41586U 16037A   25123.90522029 -.00000363  00000+0  00000+0 0  9994
2 41586   1.6587  68.3474 0010109 339.8994 250.1437  1.00267304  2783
BEIDOU-3 M1 (C19)       
1 43001U 17069A   25122.89959539 -.00000014  00000+0  00000+0 0  9994
2 43001  56.3337  76.6363 0012099 312.6002  47.2661  1.86231231 50966
BEIDOU-3 M2 (C20)       
1 43002U 17069B   25123.37441963 -.00000013  00000+0  00000+0 0  9995
2 43002  56.3328  76.6571 0010056 333.0012  26.9159  1.86230837 50964
BEIDOU-3 M7 (C27)       
1 43107U 18003A   25123.12052852 -.00000069  00000+0  00000+0 0  9999
2 43107  54.6875 316.5747 0005000  75.8002 284.2590  1.86232483 49721
BEIDOU-3 M8 (C28)       
1 43108U 18003B   25123.06358774 -.00000069  00000+0  00000+0 0  9995
2 43108  54.6804 316.5606 0002404 273.8771  86.0988  1.86230940 49721
BEIDOU-3 M4 (C22)       
1 43207U 18018A   25123.50472886 -.00000013  00000+0  00000+0 0  9990
2 43207  56.2930  76.6944 0007686 355.1994   4.7628  1.86231174 49117
BEIDOU-3 M3 (C21)       
1 43208U 18018B   25122.49734132 -.00000015  00000+0  00000+0 0  9995
2 43208  56.2915  76.7318 0009984 323.8675  36.0322  1.86231085 49095
BEIDOU-3 M9 (C29)       
1 43245U 18029A   25122.17872605 -.00000066  00000+0  00000+0 0  9997
2 43245  54.5617 314.2827 0000576  72.4918 287.5140  1.86232583 48247
BEIDOU-3 M10 (C30)      
1 43246U 18029B   25122.11052261 -.00000066  00000+0  00000+0 0  9990
2 43246  54.5598 314.3131 0004555  26.7051 333.3180  1.86229039 48220
BEIDOU-2 IGSO-7 (C16)   
1 43539U 18057A   25123.70624403 -.00000106  00000+0  00000+0 0  9990
2 43539  55.1580 166.6054 0088632 236.2651 186.5395  1.00270521 25024
BEIDOU-3 M5 (C23)       
1 43581U 18062A   25122.87287210 -.00000013  00000+0  00000+0 0  9998
2 43581  54.1006 196.2547 0004204 279.8611  80.1538  1.86228699 45990
BEIDOU-3 M6 (C24)       
1 43582U 18062B   25123.27409229 -.00000017  00000+0  00000+0 0  9994
2 43582  54.1002 196.2303 0004430  18.3563 341.7206  1.86229465 46003
BEIDOU-3 M12 (C26)      
1 43602U 18067A   25123.74644605 -.00000019  00000+0  00000+0 0  9995
2 43602  54.1933 194.9251 0007261  28.1920 331.9081  1.86227874 45493
