[
    {
        "OBJECT_NAME": "BEIDOU-2 G7",
        "OBJECT_ID": "2016-037A",
        "EPOCH": "2025-05-03T21:43:31.033056",
        "MEAN_MOTION": 1.00267304,
        "ECCENTRICITY": 0.0010109,
        "INCLINATION": 1.6587,
        "RA_OF_ASC_NODE": 68.3474,
        "ARG_OF_PERICENTER": 339.8994,
        "MEAN_ANOMALY": 250.1437,
        "EPHEMERIS_TYPE": 0,
        "CLASSIFICATION_TYPE": "U",
        "NORAD_CAT_ID": 41586,
        "ELEMENT_SET_NO": 999,
        "REV_AT_EPOCH": 278,
        "BSTAR": 0,
        "MEAN_MOTION_DOT": -3.63e-06,
        "MEAN_MOTION_DDOT": 0
    },
    {
        "OBJECT_NAME": "BEIDOU-3 M1",
        "OBJECT_ID": "2017-069A",
        "EPOCH": "2025-05-02T21:35:25.041696",
        "MEAN_MOTION": 1.86231231,
        "ECCENTRICITY": 0.0012099,
        "INCLINATION": 56.3337,
        "RA_OF_ASC_NODE": 76.6363,
        "ARG_OF_PERICENTER": 312.6002,
        "MEAN_ANOMALY": 47.2661,
        "EPHEMERIS_TYPE": 0,
        "CLASSIFICATION_TYPE": "U",
        "NORAD_CAT_ID": 43001,
        "ELEMENT_SET_NO": 999,
        "REV_AT_EPOCH": 5096,
        "BSTAR": 0,
        "MEAN_MOTION_DOT": -1.4e-07,
        "MEAN_MOTION_DDOT": 0
    },
    {
        "OBJECT_NAME": "BEIDOU-3 M2",
        "OBJECT_ID": "2017-069B",
        "EPOCH": "2025-05-03T08:59:09.856032",
        "MEAN_MOTION": 1.86230837,
        "ECCENTRICITY": 0.0010056,
        "INCLINATION": 56.3328,
        "RA_OF_ASC_NODE": 76.6571,
        "ARG_OF_PERICENTER": 333.0012,
        "MEAN_ANOMALY": 26.9159,
        "EPHEMERIS_TYPE": 0,
        "CLASSIFICATION_TYPE": "U",
        "NORAD_CAT_ID": 43002,
        "ELEMENT_SET_NO": 999,
        "REV_AT_EPOCH": 5096,
        "BSTAR": 0,
        "MEAN_MOTION_DOT": -1.3e-07,
        "MEAN_MOTION_DDOT": 0
    },
    {
        "OBJECT_NAME": "BEIDOU-3 M7",
        "OBJECT_ID": "2018-003A",
        "EPOCH": "2025-05-03T02:53:33.664128",
        "MEAN_MOTION": 1.86232483,
        "ECCENTRICITY": 0.0005,
        "INCLINATION": 54.6875,
        "RA_OF_ASC_NODE": 316.5747,
        "ARG_OF_PERICENTER": 75.8002,
        "MEAN_ANOMALY": 284.259,
        "EPHEMERIS_TYPE": 0,
        "CLASSIFICATION_TYPE": "U",
        "NORAD_CAT_ID": 43107,
        "ELEMENT_SET_NO": 999,
        "REV_AT_EPOCH": 4972,
        "BSTAR": 0,
        "MEAN_MOTION_DOT": -6.9e-07,
        "MEAN_MOTION_DDOT": 0
    },
    {
        "OBJECT_NAME": "BEIDOU-3 M8",
        "OBJECT_ID": "2018-003B",
        "EPOCH": "2025-05-03T01:31:33.980736",
        "MEAN_MOTION": 1.8623094,
        "ECCENTRICITY": 0.0002404,
        "INCLINATION": 54.6804,
        "RA_OF_ASC_NODE": 316.5606,
        "ARG_OF_PERICENTER": 273.8771,
        "MEAN_ANOMALY": 86.0988,
        "EPHEMERIS_TYPE": 0,
        "CLASSIFICATION_TYPE": "U",
        "NORAD_CAT_ID": 43108,
        "ELEMENT_SET_NO": 999,
        "REV_AT_EPOCH": 4972,
        "BSTAR": 0,
        "MEAN_MOTION_DOT": -6.9e-07,
        "MEAN_MOTION_DDOT": 0
    },
    {
        "OBJECT_NAME": "BEIDOU-3 M4",
        "OBJECT_ID": "2018-018A",
        "EPOCH": "2025-05-03T12:06:48.573504",
        "MEAN_MOTION": 1.86231174,
        "ECCENTRICITY": 0.0007686,
        "INCLINATION": 56.293,
        "RA_OF_ASC_NODE": 76.6944,
        "ARG_OF_PERICENTER": 355.1994,
        "MEAN_ANOMALY": 4.7628,
        "EPHEMERIS_TYPE": 0,
        "CLASSIFICATION_TYPE": "U",
        "NORAD_CAT_ID": 43207,
        "ELEMENT_SET_NO": 999,
        "REV_AT_EPOCH": 4911,
        "BSTAR": 0,
        "MEAN_MOTION_DOT": -1.3e-07,
        "MEAN_MOTION_DDOT": 0
    },
    {
        "OBJECT_NAME": "BEIDOU-3 M3",
        "OBJECT_ID": "2018-018B",
        "EPOCH": "2025-05-02T11:56:10.290048",
        "MEAN_MOTION": 1.86231085,
        "ECCENTRICITY": 0.0009984,
        "INCLINATION": 56.2915,
        "RA_OF_ASC_NODE": 76.7318,
        "ARG_OF_PERICENTER": 323.8675,
        "MEAN_ANOMALY": 36.0322,
        "EPHEMERIS_TYPE": 0,
        "CLASSIFICATION_TYPE": "U",
        "NORAD_CAT_ID": 43208,
        "ELEMENT_SET_NO": 999,
        "REV_AT_EPOCH": 4909,
        "BSTAR": 0,
        "MEAN_MOTION_DOT": -1.5e-07,
        "MEAN_MOTION_DDOT": 0
    },
    {
        "OBJECT_NAME": "BEIDOU-3 M9",
        "OBJECT_ID": "2018-029A",
        "EPOCH": "2025-05-02T04:17:21.930720",
        "MEAN_MOTION": 1.86232583,
        "ECCENTRICITY": 5.76e-05,
        "INCLINATION": 54.5617,
        "RA_OF_ASC_NODE": 314.2827,
        "ARG_OF_PERICENTER": 72.4918,
        "MEAN_ANOMALY": 287.514,
        "EPHEMERIS_TYPE": 0,
        "CLASSIFICATION_TYPE": "U",
        "NORAD_CAT_ID": 43245,
        "ELEMENT_SET_NO": 999,
        "REV_AT_EPOCH": 4824,
        "BSTAR": 0,
        "MEAN_MOTION_DOT": -6.6e-07,
        "MEAN_MOTION_DDOT": 0
    },
    {
        "OBJECT_NAME": "BEIDOU-3 M10",
        "OBJECT_ID": "2018-029B",
        "EPOCH": "2025-05-02T02:39:09.153504",
        "MEAN_MOTION": 1.86229039,
        "ECCENTRICITY": 0.0004555,
        "INCLINATION": 54.5598,
        "RA_OF_ASC_NODE": 314.3131,
        "ARG_OF_PERICENTER": 26.7051,
        "MEAN_ANOMALY": 333.318,
        "EPHEMERIS_TYPE": 0,
        "CLASSIFICATION_TYPE": "U",
        "NORAD_CAT_ID": 43246,
        "ELEMENT_SET_NO": 999,
        "REV_AT_EPOCH": 4822,
        "BSTAR": 0,
        "MEAN_MOTION_DOT": -6.6e-07,
        "MEAN_MOTION_DDOT": 0
    },
    {
        "OBJECT_NAME": "BEIDOU-2 IGSO-7",
        "OBJECT_ID": "2018-057A",
        "EPOCH": "2025-05-03T16:56:59.484192",
        "MEAN_MOTION": 1.00270521,
        "ECCENTRICITY": 0.0088632,
        "INCLINATION": 55.158,
        "RA_OF_ASC_NODE": 166.6054,
        "ARG_OF_PERICENTER": 236.2651,
        "MEAN_ANOMALY": 186.5395,
        "EPHEMERIS_TYPE": 0,
        "CLASSIFICATION_TYPE": "U",
        "NORAD_CAT_ID": 43539,
        "ELEMENT_SET_NO": 999,
        "REV_AT_EPOCH": 2502,
        "BSTAR": 0,
        "MEAN_MOTION_DOT": -1.06e-06,
        "MEAN_MOTION_DDOT": 0
    },
    {
        "OBJECT_NAME": "BEIDOU-3 M5",
        "OBJECT_ID": "2018-062A",
        "EPOCH": "2025-05-02T20:56:56.149440",
        "MEAN_MOTION": 1.86228699,
        "ECCENTRICITY": 0.0004204,
        "INCLINATION": 54.1006,
        "RA_OF_ASC_NODE": 196.2547,
        "ARG_OF_PERICENTER": 279.8611,
        "MEAN_ANOMALY": 80.1538,
        "EPHEMERIS_TYPE": 0,
        "CLASSIFICATION_TYPE": "U",
        "NORAD_CAT_ID": 43581,
        "ELEMENT_SET_NO": 999,
        "REV_AT_EPOCH": 4599,
        "BSTAR": 0,
        "MEAN_MOTION_DOT": -1.3e-07,
        "MEAN_MOTION_DDOT": 0
    },
    {
        "OBJECT_NAME": "BEIDOU-3 M6",
        "OBJECT_ID": "2018-062B",
        "EPOCH": "2025-05-03T06:34:41.573856",
        "MEAN_MOTION": 1.86229465,
        "ECCENTRICITY": 0.000443,
        "INCLINATION": 54.1002,
        "RA_OF_ASC_NODE": 196.2303,
        "ARG_OF_PERICENTER": 18.3563,
        "MEAN_ANOMALY": 341.7206,
        "EPHEMERIS_TYPE": 0,
        "CLASSIFICATION_TYPE": "U",
        "NORAD_CAT_ID": 43582,
        "ELEMENT_SET_NO": 999,
        "REV_AT_EPOCH": 4600,
        "BSTAR": 0,
        "MEAN_MOTION_DOT": -1.7e-07,
        "MEAN_MOTION_DDOT": 0
    },
    {
        "OBJECT_NAME": "BEIDOU-3 M12",
        "OBJECT_ID": "2018-067A",
        "EPOCH": "2025-05-03T17:54:52.938720",
        "MEAN_MOTION": 1.86227874,
        "ECCENTRICITY": 0.0007261,
        "INCLINATION": 54.1933,
        "RA_OF_ASC_NODE": 194.9251,
        "ARG_OF_PERICENTER": 28.192,
        "MEAN_ANOMALY": 331.9081,
        "EPHEMERIS_TYPE": 0,
        "CLASSIFICATION_TYPE": "U",
        "NORAD_CAT_ID": 43602,
        "ELEMENT_SET_NO": 999,
        "REV_AT_EPOCH": 4549,
        "BSTAR": 0,
        "MEAN_MOTION_DOT": -1.9e-07,
        "MEAN_MOTION_DDOT": 0
    }
]